satname,norad_id,inclination_deg,eccentricity,mean_motion_rev_per_day,perigee_km,apogee_km,l1,l2
STARLINK-1234,45190,53.0331,0.0003441,15.86629447,309.4385504570073,314.0425241781886,1 45190U 20012N   26199.75649030  .00093058  00000+0  35769-3 0  9992,2 45190  53.0331  34.5703 0003441 273.5153  86.5477 15.86629447356504
STARLINK-1269,45197,53.1548,0.0003402,15.3820812,449.08465118788536,453.73147364835404,1 45197U 20012V   26199.24394007  .00026043  00000+0  68975-3 0  9999,2 45197  53.1548 150.2809 0003402  55.4503 304.6822 15.38208120354940
STARLINK-1154,45198,53.0402,0.000409,15.66928176,364.93999377777527,370.4580876590835,1 45198U 20012W   26199.71105091  .00027771  00000+0  26118-3 0  9997,2 45198  53.0402  93.9934 0004090 102.6814 257.4658 15.66928176355714
STARLINK-1199,45201,53.1545,0.000578,15.38224729,447.41145230231086,455.3063495637889,1 45201U 20012Z   26199.54043315  .00024036  00000+0  63703-3 0  9995,2 45201  53.1545 133.1628 0005780  55.4098 304.7451 15.38224729355237
STARLINK-1209,45206,53.0348,0.0001472,15.75154506,343.2020258149414,345.18107934082127,1 45206U 20012AE  26199.77885455  .00045728  00000+0  30192-3 0  9991,2 45206  53.0348  52.1289 0001472 249.2102 110.8759 15.75154506355411
STARLINK-1231,45212,53.038,0.0002898,15.30327526,472.8483351220166,476.82031730268864,1 45212U 20012AL  26199.79072690  .00019842  00000+0  67753-3 0  9990,2 45212  53.0380 128.9523 0002898 112.8999 247.2306 15.30327526355248
STARLINK-1271,45217,53.1555,0.0005001,15.38399483,447.42652261891726,454.2568671095205,1 45217U 20012AR  26199.53303556  .00025420  00000+0  66927-3 0  9996,2 45217  53.1555 133.2660 0005001  61.7307 298.4201 15.38399483355233
STARLINK-1191,45222,53.153,0.0002666,15.429111,435.70576024877755,439.33987006221923,1 45222U 20012AW  26199.46671596  .00024086  00000+0  54728-3 0  9999,2 45222  53.1530 105.3498 0002666  48.4140 311.7094 15.42911100355625
STARLINK-1212,45223,53.0383,0.0001251,15.73805742,347.19028640490706,348.8731738211818,1 45223U 20012AX  26199.86568625  .00044607  00000+0  31231-3 0  9997,2 45223  53.0383  67.3810 0001251 211.3528 148.7416 15.73805742356160
STARLINK-1215,45225,53.154,0.0005159,15.38518749,446.9658805726913,454.0116566407396,1 45225U 20012AZ  26199.72377909  .00025683  00000+0  67344-3 0  9994,2 45225  53.1540 106.5956 0005159  67.1501 293.0048 15.38518749355583
STARLINK-1221,45227,53.0651,0.0002917,15.46634231,424.595500405012,428.5653725574557,1 45227U 20012BB  26199.78117116  .00009594  00000+0  19769-3 0  9995,2 45227  53.0651   6.2915 0002917  71.0096 289.1226 15.46634231356961
STARLINK-1222,45228,53.0513,0.0003251,15.57874851,391.60708661969875,396.0102056788237,1 45228U 20012BC  26199.78579242  .00018532  00000+0  25000-3 0  9995,2 45228  53.0513  70.3472 0003251 115.5147 244.6201 15.57874851356002
STARLINK-1226,45229,53.153,0.0004897,15.48401386,418.072338232786,424.73180680040787,1 45229U 20012BD  26199.69942172  .00035550  00000+0  66487-3 0  9995,2 45229  53.1530 100.0218 0004897  67.6155 292.5372 15.48401386355611
STARLINK-1227,45230,53.1507,0.0004544,15.48402265,418.30978981410044,424.48920858457313,1 45230U 20012BE  26198.99685031  .00035949  00000+0  67221-3 0  9996,2 45230  53.1507 103.4498 0004544  58.0744 302.0706 15.48402265355627
STARLINK-1246,45235,53.1542,0.0005274,15.3847206,447.0254329437803,454.22841312979926,1 45235U 20012BK  26199.24695412  .00024653  00000+0  64789-3 0  9990,2 45235  53.1542 149.8564 0005274  27.5863 332.5420 15.38472060355005
STARLINK-1270,45237,53.0379,0.00011,15.7276947,350.2457103898514,351.7261174309124,1 45237U 20012BM  26199.80425520  .00041988  00000+0  30761-3 0  9998,2 45237  53.0379  69.6637 0001100 201.6409 158.4562 15.72769470356127
STARLINK-1279,45360,53.0307,0.0003609,15.8809957,305.1984130884357,310.0241862111234,1 45360U 20019A   26199.82603853  .00113783  00000+0  40526-3 0  9994,2 45360  53.0307 168.5922 0003609  59.0138 301.1240 15.88099570351298
STARLINK-1301,45361,53.0301,0.0005598,15.89641159,299.5479059401796,307.02842955799224,1 45361U 20019B   26199.23499071  .00109174  15412-4  37326-3 0  9996,2 45361  53.0301 173.4496 0005598  57.3665 302.7900 15.89641159351184
STARLINK-1262,45366,53.1513,0.0002686,15.37441824,451.8421824568859,455.51223304929044,1 45366U 20019G   26199.50472968  .00026310  00000+0  71419-3 0  9990,2 45366  53.1513 275.3835 0002686 308.3300  51.7462 15.37441824349815
STARLINK-1273,45367,53.0403,0.0003225,15.62924839,377.03424914152856,381.39274021059464,1 45367U 20019H   26199.82124773  .00053224  00000+0  57933-3 0  9993,2 45367  53.0403 241.9791 0003225   4.1129 355.9910 15.62924839350283
STARLINK-1277,45369,53.0381,0.0003745,15.71185045,352.98728842699984,358.0307893101126,1 45369U 20019K   26199.49079364  .00033549  00000+0  26390-3 0  9994,2 45369  53.0381 235.1056 0003745  31.1538 328.9700 15.71185045350353
STARLINK-1281,45370,53.1543,0.0001629,15.38260651,450.14006977464214,452.3650848989382,1 45370U 20019L   26199.62439867  .00024299  00000+0  64335-3 0  9992,2 45370  53.1543 274.2233 0001629 307.7687  52.3169 15.38260651349842
STARLINK-1300,45374,53.1552,0.0002212,15.38896605,447.8606914111333,450.8811809220924,1 45374U 20019Q   26198.58167547  .00023967  00000+0  62176-3 0  9995,2 45374  53.1552 278.8693 0002212 310.0574  50.0236 15.38896605349683
STARLINK-1302,45375,53.0423,0.0001034,15.71397741,354.2052087623997,355.59760110454044,1 45375U 20019R   26199.26884880  .00032092  00000+0  25050-3 0  9997,2 45375  53.0423 231.9937 0001034  54.0708 306.0405 15.71397741350370
STARLINK-1304,45376,53.0385,0.0001675,15.66941389,366.53119730815615,368.7910396778516,1 45376U 20019S   26199.31484370  .00026589  00000+0  25025-3 0  9990,2 45376  53.0385 234.3082 0001675 351.9647   8.1341 15.66941389350341
STARLINK-1305,45377,53.0353,0.000748,15.76882687,334.2544806174483,344.30373511481594,1 45377U 20019T   26199.73513356  .00051182  00000+0  31219-3 0  9993,2 45377  53.0353 208.0570 0007480  30.8827 329.2631 15.76882687350750
STARLINK-1319,45379,53.033,0.0004095,15.85223245,312.9550821346402,318.43733153103494,1 45379U 20019V   26199.83583579  .00082049  00000+0  33833-3 0  9990,2 45379  53.0330 197.1048 0004095  45.7499 314.3860 15.85223245350910
STARLINK-1266,45383,53.042,0.0004837,15.69525547,356.9952759591124,363.513996027772,1 45383U 20019Z   26199.45745879  .00031591  00000+0  26650-3 0  9991,2 45383  53.0420 217.8281 0004837  24.9808 335.1441 15.69525547350582
STARLINK-1267,45384,53.0405,0.0002956,15.74330876,344.5481125208862,348.5237391546416,1 45384U 20019AA  26199.73487618  .00042436  00000+0  29073-3 0  9999,2 45384  53.0405 206.8350 0002956  50.9136 309.2145 15.74330876350762
STARLINK-1272,45386,53.0369,0.0002967,15.79586145,329.6215759279903,333.6031411973627,1 45386U 20019AC  26199.25679946  .00062231  00000+0  33560-3 0  9996,2 45386  53.0369 186.6048 0002967  65.5533 294.5797 15.79586145351001
STARLINK-1274,45387,53.0163,0.0005828,15.69829856,355.4571631319841,363.31041736509906,1 45387U 20019AD  26199.26916152  .00083655  00000+0  68439-3 0  9997,2 45387  53.0163 188.4381 0005828 348.1165  11.9712 15.69829856350975
STARLINK-1280,45388,53.0287,0.0005886,15.93899686,287.4563800728174,295.30773790906187,1 45388U 20019AE  26199.91668980  .00203751  27026-4  55052-3 0  9993,2 45388  53.0287 187.0498 0005886  53.3019 238.1528 15.93899686  6043
STARLINK-1283,45389,53.0335,0.0004592,15.76828108,336.3494056383897,342.51882294975803,1 45389U 20019AF  26199.23373142  .00050199  00000+0  30736-3 0  9998,2 45389  53.0335 186.0683 0004592  22.9774 337.1450 15.76828108351012
STARLINK-1284,45390,53.0384,0.0004232,15.74786073,342.39467130221783,348.08533759878446,1 45390U 20019AG  26199.48825357  .00042948  00000+0  28838-3 0  9990,2 45390  53.0384 209.2358 0004232  74.4850 285.6636 15.74786073350703
STARLINK-1297,45395,53.0384,0.0003901,15.78077165,333.2698413071703,338.5081243789846,1 45395U 20019AM  26199.84381816  .00054960  00000+0  31788-3 0  9997,2 45395  53.0384 206.0414 0003901  45.5543 314.5796 15.78077165349960
STARLINK-1307,45397,53.05,0.0002739,15.59311543,387.7946971659585,391.5020900045656,1 45397U 20019AP  26199.41839100  .00021843  00000+0  27800-3 0  9990,2 45397  53.0500 218.8370 0002739  13.8141 346.2946 15.59311543350392
STARLINK-1255,45399,53.0317,0.0001705,15.69413921,359.4251981323305,361.72309863393,1 45399U 20019AR  26199.33611109  .00031529  00000+0  26731-3 0  9994,2 45399  53.0317 184.1708 0001705   0.9030 359.1989 15.69413921350851
STARLINK-1260,45404,53.1528,0.0001684,15.41617907,440.1854478270425,442.48224560821564,1 45404U 20019AW  26199.58340350  .00055850  00000+0  13069-2 0  9997,2 45404  53.1528 236.1997 0001684 318.4480  41.6397 15.41617907350084
STARLINK-1263,45405,53.1545,0.0003558,15.38533242,448.01627492928947,452.87549451005543,1 45405U 20019AX  26199.82712481  .00022499  00000+0  59130-3 0  9996,2 45405  53.1545 237.1779 0003558 330.7195  29.3610 15.38533242350092
STARLINK-1265,45406,53.1529,0.0002809,15.42026689,438.2133421893759,442.0438437995199,1 45406U 20019AY  26199.82450204  .00026487  00000+0  61871-3 0  9995,2 45406  53.1529 234.9323 0002809   4.5651 355.5380 15.42026689350125
STARLINK-1278,45408,53.0357,0.000318,15.79301712,330.2839973042146,334.55191025481963,1 45408U 20019BA  26199.71532189  .00056866  00000+0  31114-3 0  9999,2 45408  53.0357 205.2799 0003180  50.2478 309.8822 15.79301712350509
STARLINK-1296,45412,53.1518,0.0001718,15.42161094,438.5611193561226,440.90373929203815,1 45412U 20019BE  26199.79458278  .00025712  00000+0  59830-3 0  9999,2 45412  53.1518 234.7132 0001718 343.8653  16.2298 15.42161094350124
STARLINK-1309,45414,53.0569,0.0003655,15.77367455,335.44802816221363,340.35745321265586,1 45414U 20019BG  26199.26578807  .00049134  00000+0  29394-3 0  9990,2 45414  53.0569 201.9968 0003655  52.6683 307.4669 15.77367455350498
